STARLINK-1593
1 46119U 20057C   26061.25002314  .00081086  00000+0  60281-3 0  9999
2 46119  53.0462 307.3431 0004848 109.4793 313.2055 15.72137448  5940
